NORAD_CAT_ID,OBJECT_NAME,OBJECT_TYPE,EPOCH,MEAN_MOTION,ECCENTRICITY,INCLINATION,RA_OF_ASC_NODE,ARG_OF_PERICENTER,MEAN_ANOMALY,BSTAR,MEAN_MOTION_DOT,MEAN_MOTION_DDOT,TLE_LINE0,TLE_LINE1,TLE_LINE2,SEMIMAJOR_AXIS,PERIOD,APOGEE,PERIGEE,DECAYED
52706.0,STARLINK-3970,PAYLOAD,2022-10-10 10:35:28,15.08838976,0.0001875,53.218,328.7537,36.1903,323.9216,-9.2242e-06,-4.35e-06,0.0,0 STARLINK-3970,1 52706U 22053BC  22283.44130335 -.00000435  00000-0 -92242-5 0  9990,2 52706  53.2180 328.7537 0001875  36.1903 323.9216 15.08838976 23173,6917.884,95.438,541.0459999999998,538.451,0.0
52706.0,STARLINK-3970,PAYLOAD,2022-10-10 20:07:47,15.08830047,0.0002168,53.2176,326.9698,31.9851,328.1273,-0.00014954,-2.667e-05,0.0,0 STARLINK-3970,1 52706U 22053BC  22283.83874891 -.00002667  00000-0 -14954-3 0  9996,2 52706  53.2176 326.9698 0002168  31.9851 328.1273 15.08830047 23235,6917.911,95.438,541.276,538.276,0.0
52706.0,STARLINK-3970,PAYLOAD,2022-10-11 12:01:39,15.08828304,0.0002039,53.2177,323.9958,35.0798,325.0328,-4.7397e-05,-1.042e-05,0.0,0 STARLINK-3970,1 52706U 22053BC  22284.50115421 -.00001042  00000-0 -47397-4 0  9992,2 52706  53.2177 323.9958 0002039  35.0798 325.0328 15.08828304 22907,6917.916,95.438,541.192,538.371,0.0
52706.0,STARLINK-3970,PAYLOAD,2022-10-12 02:20:08,15.08822436,0.0002201,53.2176,321.3184,36.0625,324.0515,-0.00013657,-2.46e-05,0.0,0 STARLINK-3970,1 52706U 22053BC  22285.09732633 -.00002460  00000-0 -13657-3 0  9993,2 52706  53.2176 321.3184 0002201  36.0625 324.0515 15.08822436 22996,6917.934,95.439,541.322,538.276,0.0
52706.0,STARLINK-3970,PAYLOAD,2022-10-12 08:41:41,15.08833381,0.0002234,53.2185,320.129,35.1981,324.9158,-2.9897e-05,-7.64e-06,0.0,0 STARLINK-3970,1 52706U 22053BC  22285.36228577 -.00000764  00000-0 -29897-4 0  9999,2 52706  53.2185 320.1290 0002234  35.1981 324.9158 15.08833381 23468,6917.901,95.438,541.311,538.22,0.0
52706.0,STARLINK-3970,PAYLOAD,2022-10-13 03:46:18,15.0884739,0.0002365,53.2174,316.5609,36.1502,323.9649,0.00038766,5.888e-05,0.0,0 STARLINK-3970,1 52706U 22053BC  22286.15716282  .00005888  00000-0  38766-3 0  9996,2 52706  53.2174 316.5609 0002365  36.1502 323.9649 15.08847390 23159,6917.858,95.437,541.359,538.087,0.0
52706.0,STARLINK-3970,PAYLOAD,2022-10-13 08:32:28,15.08854331,0.0002407,53.2175,315.6692,35.703,324.4123,0.00047796,7.329999999999999e-05,0.0,0 STARLINK-3970,1 52706U 22053BC  22286.35588019  .00007330  00000-0  47796-3 0  9990,2 52706  53.2175 315.6692 0002407  35.7030 324.4123 15.08854331 23617,6917.837,95.437,541.367,538.036,0.0
52706.0,STARLINK-3970,PAYLOAD,2022-10-13 19:40:09,15.08871949,0.0002445,53.2172,313.5874,37.451,322.6653,0.00078012,0.0001216,0.0,0 STARLINK-3970,1 52706U 22053BC  22286.81955194  .00012160  00000-0  78012-3 0  9995,2 52706  53.2172 313.5874 0002445  37.4510 322.6653 15.08871949 23259,6917.783,95.436,541.339,537.956,0.0
52706.0,STARLINK-3970,PAYLOAD,2022-10-14 05:12:27,15.08862051,0.0002743,53.2172,311.8031,27.4326,332.681,0.00026926,4.002e-05,0.0,0 STARLINK-3970,1 52706U 22053BC  22287.21698955  .00004002  00000-0  26926-3 0  9992,2 52706  53.2172 311.8031 0002743  27.4326 332.6810 15.08862051 23317,6917.813,95.436,541.576,537.78,0.0
52706.0,STARLINK-3970,PAYLOAD,2022-10-14 08:23:13,15.08865814,0.0002544,53.2172,311.2083,33.2003,326.9149,-6.5115e-05,-1.325e-05,0.0,0 STARLINK-3970,1 52706U 22053BC  22287.34946354 -.00001325  00000-0 -65115-4 0  9996,2 52706  53.2172 311.2083 0002544  33.2003 326.9149 15.08865814 23764,6917.801,95.436,541.4259999999998,537.9069999999998,0.0
52706.0,STARLINK-3970,PAYLOAD,2022-10-15 03:27:51,15.08841009,0.0002631999999999,53.2176,307.6401,26.4497,333.6629,-1.2423e-05,-4.86e-06,0.0,0 STARLINK-3970,1 52706U 22053BC  22288.14434334 -.00000486  00000-0 -12423-4 0  9996,2 52706  53.2176 307.6401 0002632  26.4497 333.6629 15.08841009 23454,6917.877,95.437,541.563,537.922,0.0
52706.0,STARLINK-3970,PAYLOAD,2022-10-15 08:14:00,15.0883766,0.0002466,53.2177,306.7478,29.0686,331.0443,0.00022295,3.262e-05,0.0,0 STARLINK-3970,1 52706U 22053BC  22288.34306488  .00003262  00000-0  22295-3 0  9996,2 52706  53.2177 306.7478 0002466  29.0686 331.0443 15.08837660 23918,6917.888000000001,95.438,541.4580000000002,538.047,0.0
52706.0,STARLINK-3970,PAYLOAD,2022-10-16 08:04:48,15.08838832,0.0002519,53.218,302.2866,30.3544,329.7593,0.00032645,4.911e-05,0.0,0 STARLINK-3970,1 52706U 22053BC  22289.33666963  .00004911  00000-0  32645-3 0  9995,2 52706  53.2180 302.2866 0002519  30.3544 329.7593 15.08838832 24060,6917.884,95.438,541.492,538.006,0.0
52706.0,STARLINK-3970,PAYLOAD,2022-10-17 07:55:35,15.08844084,0.0002491,53.217,297.8262,27.0145,333.0976,0.00023802,3.502e-05,0.0,0 STARLINK-3970,1 52706U 22053BC  22290.33026861  .00003502  00000-0  23802-3 0  9994,2 52706  53.2170 297.8262 0002491  27.0145 333.0976 15.08844084 24213,6917.868,95.437,541.456,538.01,0.0
52706.0,STARLINK-3970,PAYLOAD,2022-10-17 22:14:03,15.0883775,0.0002431,53.2168,295.1505,29.6815,330.4315,7.786699999999999e-05,9.51e-06,0.0,0 STARLINK-3970,1 52706U 22053BC  22290.92643230  .00000951  00000-0  77867-4 0  9990,2 52706  53.2168 295.1505 0002431  29.6815 330.4315 15.08837750 23878,6917.887,95.438,541.434,538.071,0.0
52706.0,STARLINK-3970,PAYLOAD,2022-10-18 09:21:45,15.08838045,0.0002631,53.2167,293.0678,26.8877,333.2251,8.5481e-05,1.072e-05,0.0,0 STARLINK-3970,1 52706U 22053BC  22291.39011442  .00001072  00000-0  85481-4 0  9992,2 52706  53.2167 293.0678 0002631  26.8877 333.2251 15.08838045 24378,6917.886,95.438,541.571,537.931,0.0
52706.0,STARLINK-3970,PAYLOAD,2022-10-18 18:54:05,15.08827974,0.000246,53.217,291.2841,26.0308,334.0807,-7.240000000000001e-05,-1.44e-05,0.0,0 STARLINK-3970,1 52706U 22053BC  22291.78756146 -.00001440  00000-0 -72400-4 0  9990,2 52706  53.2170 291.2841 0002460  26.0308 334.0807 15.08827974 24000,6917.917,95.438,541.484,538.08,0.0
52706.0,STARLINK-3970,PAYLOAD,2022-10-19 09:12:33,15.08837213,0.0002394,53.2172,288.6089,30.6643,329.4489,0.00011503,1.543e-05,0.0,0 STARLINK-3970,1 52706U 22053BC  22292.38372076  .00001543  00000-0  11503-3 0  9991,2 52706  53.2172 288.6089 0002394  30.6643 329.4489 15.08837213 24095,6917.889,95.438,541.41,538.0980000000002,0.0
52706.0,STARLINK-3970,PAYLOAD,2022-10-19 20:20:15,15.08845385,0.0002334999999999,53.2173,286.5275,32.2868,327.8266,0.00031982,4.806e-05,0.0,0 STARLINK-3970,1 52706U 22053BC  22292.84739880  .00004806  00000-0  31982-3 0  9990,2 52706  53.2173 286.5275 0002335  32.2868 327.8266 15.08845385 24591,6917.864000000001,95.437,541.344,538.114,0.0
52706.0,STARLINK-3970,PAYLOAD,2022-10-20 09:03:20,15.08840339,0.00029,53.2159,284.1507,29.4805,330.635,0.00025961,3.846e-05,0.0,0 STARLINK-3970,1 52706U 22053BC  22293.37732348  .00003846  00000-0  25961-3 0  9994,2 52706  53.2159 284.1507 0002900  29.4805 330.6350 15.08840339 24673,6917.879,95.438,541.751,537.738,0.0
52706.0,STARLINK-3970,PAYLOAD,2022-10-20 18:35:39,15.088502800000002,0.0002682,53.2161,282.3658,31.8946,328.2208,0.0003854,5.852e-05,0.0,0 STARLINK-3970,1 52706U 22053BC  22293.77475965  .00005852  00000-0  38540-3 0  9993,2 52706  53.2161 282.3658 0002682  31.8946 328.2208 15.08850280 24304,6917.849,95.437,541.569,537.859,0.0
52706.0,STARLINK-3970,PAYLOAD,2022-10-20 20:11:02,15.08849111,0.0002278999999999,53.2166,282.0671,33.3546,326.759,0.0003522,5.323e-05,0.0,0 STARLINK-3970,1 52706U 22053BC  22293.84099944  .00005323  00000-0  35220-3 0  9995,2 52706  53.2166 282.0671 0002279  33.3546 326.7590 15.08849111 24742,6917.853,95.437,541.294,538.141,0.0
52706.0,STARLINK-3970,PAYLOAD,2022-10-21 02:32:35,15.08841673,0.0002276999999999,53.2165,280.8777,33.4434,326.6702,0.00010475,1.379e-05,0.0,0 STARLINK-3970,1 52706U 22053BC  22294.10596076  .00001379  00000-0  10475-3 0  9995,2 52706  53.2165 280.8777 0002277  33.4434 326.6702 15.08841673 24355,6917.875,95.437,541.315,538.165,0.0
52706.0,STARLINK-3970,PAYLOAD,2022-10-21 10:29:30,15.08844335,0.0002499,53.2163,279.3913,32.9044,327.2104,0.00023474,3.45e-05,0.0,0 STARLINK-3970,1 52706U 22053BC  22294.43716090  .00003450  00000-0  23474-3 0  9996,2 52706  53.2163 279.3913 0002499  32.9044 327.2104 15.08844335 24839,6917.8669999999975,95.437,541.461,538.003,0.0
52706.0,STARLINK-3970,PAYLOAD,2022-10-22 10:20:17,15.08846875,0.0002519,53.2169,274.9309,33.1433,326.9717,4.3445e-05,4.03e-06,0.0,0 STARLINK-3970,1 52706U 22053BC  22295.43075811  .00000403  00000-0  43445-4 0  9992,2 52706  53.2169 274.9309 0002519  33.1433 326.9717 15.08846875 24559,6917.859,95.437,541.467,537.982,0.0
52706.0,STARLINK-3970,PAYLOAD,2022-10-23 08:35:41,15.0884783,0.0002579,53.2178,270.767,31.9244,328.1904,0.00019828,2.869e-05,0.0,0 STARLINK-3970,1 52706U 22053BC  22296.35811661  .00002869  00000-0  19828-3 0  9990,2 52706  53.2178 270.7670 0002579  31.9244 328.1904 15.08847830 25124,6917.856,95.437,541.506,537.937,0.0
52706.0,STARLINK-3970,PAYLOAD,2022-10-23 14:57:13,15.08855475,0.0002586,53.2178,269.5778,32.0074,328.1075,0.0002311,3.393e-05,0.0,0 STARLINK-3970,1 52706U 22053BC  22296.62307083  .00003393  00000-0  23110-3 0  9990,2 52706  53.2178 269.5778 0002586  32.0074 328.1075 15.08855475 24739,6917.833000000001,95.437,541.487,537.909,0.0
52706.0,STARLINK-3970,PAYLOAD,2022-10-24 08:26:28,15.08841736,0.0002421999999999,53.2176,266.307,33.7062,326.4084,4.6839e-05,4.57e-06,0.0,0 STARLINK-3970,1 52706U 22053BC  22297.35171384  .00000457  00000-0  46839-4 0  9996,2 52706  53.2176 266.3070 0002422  33.7062 326.4084 15.08841736 24849,6917.875,95.437,541.4159999999998,538.065,0.0
52706.0,STARLINK-3970,PAYLOAD,2022-10-24 14:48:00,15.08839697,0.0002614,53.2178,265.1175,32.2344,327.8807,-1.8055e-05,-5.76e-06,0.0,0 STARLINK-3970,1 52706U 22053BC  22297.61667531 -.00000576  00000-0 -18055-4 0  9992,2 52706  53.2178 265.1175 0002614  32.2344 327.8807 15.08839697 25318,6917.880999999999,95.438,541.555,537.938,0.0
